ORDINAL,COMMENT,ORIGINATOR,NORAD_CAT_ID,OBJECT_NAME,OBJECT_TYPE,CLASSIFICATION_TYPE,INTLDES,EPOCH,EPOCH_MICROSECONDS,MEAN_MOTION,ECCENTRICITY,INCLINATION,RA_OF_ASC_NODE,ARG_OF_PERICENTER,MEAN_ANOMALY,EPHEMERIS_TYPE,ELEMENT_SET_NO,REV_AT_EPOCH,BSTAR,MEAN_MOTION_DOT,MEAN_MOTION_DDOT,FILE,TLE_LINE0,TLE_LINE1,TLE_LINE2,OBJECT_ID,OBJECT_NUMBER,SEMIMAJOR_AXIS,PERIOD,APOGEE,PERIGEE,DECAYED
"5","GENERATED VIA SPACETRACK.ORG API","18 SPCS","15","EXPLORER 6","PAYLOAD","U","59004A","1959-08-26 17:14:14","22240","1.88405807","0.7606115","46.9509","57.9561","39.9011","344.9525","0","999","36","0","0.00010056","0","33905","0 EXPLORER 6","1 00015U 59004  A 59238.71821785  .00010056 +00000-0 +00000-0 0  9992","2 00015 046.9509 057.9561 7606115 039.9011 344.9525 01.88405807000365","1959-004A","15","27691.039","764.307","42375.027","250.781","1"
"5","GENERATED VIA SPACETRACK.ORG API","18 SPCS","9","EXPLORER 4","PAYLOAD","U","58005A","1959-08-30 13:01:54","971903","15.04848316","0.0440497","50.2549","243.3844","283.1585","79.2689","0","999","5570","0","0.00421521","0","33905","0 EXPLORER 4","1 00009U 58005  A 59242.54299736  .00421521 +00000-0 +00000-0 0  9999","2 00009 050.2549 243.3844 0440497 283.1585 079.2689 15.04848316055702","1958-005A","9","6930.112","95.690","857.247","246.708","1"
"5","GENERATED VIA SPACETRACK.ORG API","18 SPCS","19","DISCOVERER 6","PAYLOAD","U","59006A","1959-09-01 07:13:54","631199","15.25825453","0.0408743","83.9999","313.3811","97.5175","264.8517","0","999","190","0","0.00564841","0","33905","0 DISCOVERER 6","1 00019U 59006  A 59244.30132675  .00564841 +00000-0 +00000-0 0  9999","2 00019 083.9999 313.3811 0408743 097.5175 264.8517 15.25825453001902","1959-006A","19","6866.449","94.375","768.975","207.652","1"
"4","GENERATED VIA SPACETRACK.ORG API","18 SPCS","9","EXPLORER 4","PAYLOAD","U","58005A","1959-09-06 04:00:31","256351","15.12478751","0.0408223","50.2549","211.3271","308.3519","53.4735","0","999","5670","0","0.00575697","0","33905","0 EXPLORER 4","1 00009U 58005  A 59249.16702843  .00575697 +00000-0 +00000-0 0  9996","2 00009 050.2549 211.3271 0408223 308.3519 053.4735 15.12478751056707","1958-005A","9","6906.784","95.207","810.600","246.699","1"
"4","GENERATED VIA SPACETRACK.ORG API","18 SPCS","15","EXPLORER 6","PAYLOAD","U","59004A","1959-09-08 10:41:08","407680","1.88649313","0.7604053","46.9509","55.0972","42.6859","343.8088","0","999","60","0","0.00010095","0","33905","0 EXPLORER 6","1 00015U 59004  A 59251.44523620  .00010095 +00000-0 +00000-0 0  9997","2 00015 046.9509 055.0972 7604053 042.6859 343.8088 01.88649313000601","1959-004A","15","27667.205","763.321","42327.360","250.780","1"
